CCSDS_OMM_VERS = 2.0
CREATION_DATE  = 
ORIGINATOR     = 

OBJECT_NAME    = SL-16 R/B
OBJECT_ID      = 1992-093B
CENTER_NAME    = EARTH
REF_FRAME      = TEME
TIME_SYSTEM    = UTC
MEAN_ELEMENT_THEORY = SGP/SGP4

EPOCH          = 2025-10-31T14:58:32.716128
MEAN_MOTION    = 14.15417790
ECCENTRICITY   = .0003495
INCLINATION    = 71.0201
RA_OF_ASC_NODE = 275.2026
ARG_OF_PERICENTER = 177.7757
MEAN_ANOMALY   = 182.3382

EPHEMERIS_TYPE = 0
CLASSIFICATION_TYPE = U
NORAD_CAT_ID   = 22285
ELEMENT_SET_NO = 999
REV_AT_EPOCH   = 69489
BSTAR          = -.21053E-4
MEAN_MOTION_DOT = -.89E-6
MEAN_MOTION_DDOT = 0

CCSDS_OMM_VERS = 2.0
CREATION_DATE  = 
ORIGINATOR     = 

OBJECT_NAME    = COSMOS 2228
OBJECT_ID      = 1992-094A
CENTER_NAME    = EARTH
REF_FRAME      = TEME
TIME_SYSTEM    = UTC
MEAN_ELEMENT_THEORY = SGP/SGP4

EPOCH          = 2025-10-31T15:14:32.582112
MEAN_MOTION    = 14.96447873
ECCENTRICITY   = .0018551
INCLINATION    = 82.5210
RA_OF_ASC_NODE = 0.8129
ARG_OF_PERICENTER = 21.3560
MEAN_ANOMALY   = 338.8432

EPHEMERIS_TYPE = 0
CLASSIFICATION_TYPE = U
NORAD_CAT_ID   = 22286
ELEMENT_SET_NO = 999
REV_AT_EPOCH   = 75675
BSTAR          = .30666E-3
MEAN_MOTION_DOT = .3515E-4
MEAN_MOTION_DDOT = 0

CCSDS_OMM_VERS = 2.0
CREATION_DATE  = 
ORIGINATOR     = 

OBJECT_NAME    = SL-16 R/B
OBJECT_ID      = 1993-016B
CENTER_NAME    = EARTH
REF_FRAME      = TEME
TIME_SYSTEM    = UTC
MEAN_ELEMENT_THEORY = SGP/SGP4

EPOCH          = 2025-10-31T15:38:15.038016
MEAN_MOTION    = 14.15279518
ECCENTRICITY   = .0009648
INCLINATION    = 71.0053
RA_OF_ASC_NODE = 126.1985
ARG_OF_PERICENTER = 173.1272
MEAN_ANOMALY   = 186.9985

EPHEMERIS_TYPE = 0
CLASSIFICATION_TYPE = U
NORAD_CAT_ID   = 22566
ELEMENT_SET_NO = 999
REV_AT_EPOCH   = 68391
BSTAR          = -.58089E-4
MEAN_MOTION_DOT = -.161E-5
MEAN_MOTION_DDOT = 0

CCSDS_OMM_VERS = 2.0
CREATION_DATE  = 
ORIGINATOR     = 

OBJECT_NAME    = COSMOS 2242
OBJECT_ID      = 1993-024A
CENTER_NAME    = EARTH
REF_FRAME      = TEME
TIME_SYSTEM    = UTC
MEAN_ELEMENT_THEORY = SGP/SGP4

EPOCH          = 2025-10-31T15:07:42.134592
MEAN_MOTION    = 14.95846568
ECCENTRICITY   = .0016935
INCLINATION    = 82.5220
RA_OF_ASC_NODE = 30.0775
ARG_OF_PERICENTER = 24.2610
MEAN_ANOMALY   = 335.9406

EPHEMERIS_TYPE = 0
CLASSIFICATION_TYPE = U
NORAD_CAT_ID   = 22626
ELEMENT_SET_NO = 999
REV_AT_EPOCH   = 76109
BSTAR          = .26331E-3
MEAN_MOTION_DOT = .2974E-4
MEAN_MOTION_DDOT = 0

CCSDS_OMM_VERS = 2.0
CREATION_DATE  = 
ORIGINATOR     = 

OBJECT_NAME    = SL-16 R/B
OBJECT_ID      = 1993-059B
CENTER_NAME    = EARTH
REF_FRAME      = TEME
TIME_SYSTEM    = UTC
MEAN_ELEMENT_THEORY = SGP/SGP4

EPOCH          = 2025-10-31T09:11:09.002976
MEAN_MOTION    = 14.17202693
ECCENTRICITY   = .0015508
INCLINATION    = 70.9893
RA_OF_ASC_NODE = 283.8040
ARG_OF_PERICENTER = 40.9142
MEAN_ANOMALY   = 319.3143

EPHEMERIS_TYPE = 0
CLASSIFICATION_TYPE = U
NORAD_CAT_ID   = 22803
ELEMENT_SET_NO = 999
REV_AT_EPOCH   = 66121
BSTAR          = -.25802E-4
MEAN_MOTION_DOT = -.1E-5
MEAN_MOTION_DDOT = 0

CCSDS_OMM_VERS = 2.0
CREATION_DATE  = 
ORIGINATOR     = 

OBJECT_NAME    = ARIANE 40 R/B
OBJECT_ID      = 1993-061H
CENTER_NAME    = EARTH
REF_FRAME      = TEME
TIME_SYSTEM    = UTC
MEAN_ELEMENT_THEORY = SGP/SGP4

EPOCH          = 2025-10-31T15:32:48.954048
MEAN_MOTION    = 14.32761371
ECCENTRICITY   = .0009747
INCLINATION    = 98.5126
RA_OF_ASC_NODE = 10.9337
ARG_OF_PERICENTER = 309.8678
MEAN_ANOMALY   = 50.1649

EPHEMERIS_TYPE = 0
CLASSIFICATION_TYPE = U
NORAD_CAT_ID   = 22830
ELEMENT_SET_NO = 999
REV_AT_EPOCH   = 67562
BSTAR          = .13799E-3
MEAN_MOTION_DOT = .333E-5
MEAN_MOTION_DDOT = 0

CCSDS_OMM_VERS = 2.0
CREATION_DATE  = 
ORIGINATOR     = 

OBJECT_NAME    = COSMOS 2278
OBJECT_ID      = 1994-023A
CENTER_NAME    = EARTH
REF_FRAME      = TEME
TIME_SYSTEM    = UTC
MEAN_ELEMENT_THEORY = SGP/SGP4

EPOCH          = 2025-10-31T15:59:41.087328
MEAN_MOTION    = 14.14330974
ECCENTRICITY   = .0010598
INCLINATION    = 71.0517
RA_OF_ASC_NODE = 85.0304
ARG_OF_PERICENTER = 234.2166
MEAN_ANOMALY   = 125.7972

EPHEMERIS_TYPE = 0
CLASSIFICATION_TYPE = U
NORAD_CAT_ID   = 23087
ELEMENT_SET_NO = 999
REV_AT_EPOCH   = 62656
BSTAR          = .12188E-4
MEAN_MOTION_DOT = -.24E-6
MEAN_MOTION_DDOT = 0

CCSDS_OMM_VERS = 2.0
CREATION_DATE  = 
ORIGINATOR     = 

OBJECT_NAME    = SL-16 R/B
OBJECT_ID      = 1994-023B
CENTER_NAME    = EARTH
REF_FRAME      = TEME
TIME_SYSTEM    = UTC
MEAN_ELEMENT_THEORY = SGP/SGP4

EPOCH          = 2025-10-31T13:26:19.461408
MEAN_MOTION    = 14.14991870
ECCENTRICITY   = .0002149
INCLINATION    = 71.0014
RA_OF_ASC_NODE = 342.0680
ARG_OF_PERICENTER = 180.2175
MEAN_ANOMALY   = 179.8947

EPHEMERIS_TYPE = 0
CLASSIFICATION_TYPE = U
NORAD_CAT_ID   = 23088
ELEMENT_SET_NO = 999
REV_AT_EPOCH   = 62782
BSTAR          = .92183E-4
MEAN_MOTION_DOT = .131E-5
MEAN_MOTION_DDOT = 0

CCSDS_OMM_VERS = 2.0
CREATION_DATE  = 
ORIGINATOR     = 

OBJECT_NAME    = SL-16 R/B
OBJECT_ID      = 1994-074B
CENTER_NAME    = EARTH
REF_FRAME      = TEME
TIME_SYSTEM    = UTC
MEAN_ELEMENT_THEORY = SGP/SGP4

EPOCH          = 2025-10-31T16:16:32.307744
MEAN_MOTION    = 14.79216112
ECCENTRICITY   = .0005156
INCLINATION    = 97.7261
RA_OF_ASC_NODE = 335.6430
ARG_OF_PERICENTER = 285.1840
MEAN_ANOMALY   = 187.1218

EPHEMERIS_TYPE = 0
CLASSIFICATION_TYPE = U
NORAD_CAT_ID   = 23343
ELEMENT_SET_NO = 999
REV_AT_EPOCH   = 66817
BSTAR          = .10089E-3
MEAN_MOTION_DOT = .7E-5
MEAN_MOTION_DDOT = 0

CCSDS_OMM_VERS = 2.0
CREATION_DATE  = 
ORIGINATOR     = 

OBJECT_NAME    = SL-16 R/B
OBJECT_ID      = 1994-077B
CENTER_NAME    = EARTH
REF_FRAME      = TEME
TIME_SYSTEM    = UTC
MEAN_ELEMENT_THEORY = SGP/SGP4

EPOCH          = 2025-10-31T14:12:19.924128
MEAN_MOTION    = 14.15538236
ECCENTRICITY   = .0003463
INCLINATION    = 70.9815
RA_OF_ASC_NODE = 264.0792
ARG_OF_PERICENTER = 317.5877
MEAN_ANOMALY   = 42.4978

EPHEMERIS_TYPE = 0
CLASSIFICATION_TYPE = U
NORAD_CAT_ID   = 23405
ELEMENT_SET_NO = 999
REV_AT_EPOCH   = 59796
BSTAR          = -.1198E-4
MEAN_MOTION_DOT = -.71E-6
MEAN_MOTION_DDOT = 0

CCSDS_OMM_VERS = 2.0
CREATION_DATE  = 
ORIGINATOR     = 

OBJECT_NAME    = ARIANE 40+ R/B
OBJECT_ID      = 1995-021B
CENTER_NAME    = EARTH
REF_FRAME      = TEME
TIME_SYSTEM    = UTC
MEAN_ELEMENT_THEORY = SGP/SGP4

EPOCH          = 2025-10-31T15:18:41.082336
MEAN_MOTION    = 14.39645034
ECCENTRICITY   = .0007194
INCLINATION    = 98.4701
RA_OF_ASC_NODE = 12.7261
ARG_OF_PERICENTER = 160.2535
MEAN_ANOMALY   = 357.6703

EPHEMERIS_TYPE = 0
CLASSIFICATION_TYPE = U
NORAD_CAT_ID   = 23561
ELEMENT_SET_NO = 999
REV_AT_EPOCH   = 60067
BSTAR          = .15315E-3
MEAN_MOTION_DOT = .435E-5
MEAN_MOTION_DDOT = 0

CCSDS_OMM_VERS = 2.0
CREATION_DATE  = 
ORIGINATOR     = 

OBJECT_NAME    = SL-16 R/B
OBJECT_ID      = 1995-058B
CENTER_NAME    = EARTH
REF_FRAME      = TEME
TIME_SYSTEM    = UTC
MEAN_ELEMENT_THEORY = SGP/SGP4

EPOCH          = 2025-10-31T15:54:57.367872
MEAN_MOTION    = 14.15470964
ECCENTRICITY   = .0014155
INCLINATION    = 71.0199
RA_OF_ASC_NODE = 91.1399
ARG_OF_PERICENTER = 310.0404
MEAN_ANOMALY   = 49.9476

EPHEMERIS_TYPE = 0
CLASSIFICATION_TYPE = U
NORAD_CAT_ID   = 23705
ELEMENT_SET_NO = 999
REV_AT_EPOCH   = 54959
BSTAR          = .20652E-3
MEAN_MOTION_DOT = .356E-5
MEAN_MOTION_DDOT = 0

