SL-16 R/B               
1 22285U 92093B   25304.62398977 -.00000089  00000+0 -21053-4 0  9990
2 22285  71.0201 275.2026 0003495 177.7757 182.3382 14.15417790694890
COSMOS 2228             
1 22286U 92094A   25304.63509933  .00003515  00000+0  30666-3 0  9993
2 22286  82.5210   0.8129 0018551  21.3560 338.8432 14.96447873756751
SL-16 R/B               
1 22566U 93016B   25304.65156294 -.00000161  00000+0 -58089-4 0  9995
2 22566  71.0053 126.1985 0009648 173.1272 186.9985 14.15279518683917
COSMOS 2242             
1 22626U 93024A   25304.63034878  .00002974  00000+0  26331-3 0  9998
2 22626  82.5220  30.0775 0016935  24.2610 335.9406 14.95846568761099
SL-16 R/B               
1 22803U 93059B   25304.38274309 -.00000100  00000+0 -25802-4 0  9994
2 22803  70.9893 283.8040 0015508  40.9142 319.3143 14.17202693661212
ARIANE 40 R/B           
1 22830U 93061H   25304.64778882  .00000333  00000+0  13799-3 0  9998
2 22830  98.5126  10.9337 0009747 309.8678  50.1649 14.32761371675625
COSMOS 2278             
1 23087U 94023A   25304.66644777 -.00000024  00000+0  12188-4 0  9999
2 23087  71.0517  85.0304 0010598 234.2166 125.7972 14.14330974626564
SL-16 R/B               
1 23088U 94023B   25304.55994747  .00000131  00000+0  92183-4 0  9994
2 23088  71.0014 342.0680 0002149 180.2175 179.8947 14.14991870627823
SL-16 R/B               
1 23343U 94074B   25304.67815171  .00000700  00000+0  10089-3 0  9996
2 23343  97.7261 335.6430 0005156 285.1840 187.1218 14.79216112668178
SL-16 R/B               
1 23405U 94077B   25304.59189727 -.00000071  00000+0 -11980-4 0  9995
2 23405  70.9815 264.0792 0003463 317.5877  42.4978 14.15538236597968
ARIANE 40+ R/B          
1 23561U 95021B   25304.63797549  .00000435  00000+0  15315-3 0  9997
2 23561  98.4701  12.7261 0007194 160.2535 357.6703 14.39645034600679
SL-16 R/B               
1 23705U 95058B   25304.66316398  .00000356  00000+0  20652-3 0  9991
2 23705  71.0199  91.1399 0014155 310.0404  49.9476 14.15470964549598
